{"type":"FeatureCollection","features":[
{"id":85683497,"type":"Feature","properties":{"name":"Paris"},"geometry":{"coordinates":[[[2.416345,48.849239],[2.411815,48.834137],[2.412588,48.833786],[2.416842,48.834064],[2.421697,48.835628],[2.421025,48.838974],[2.419379,48.842327],[2.421058,48.844066],[2.422061,48.844311],[2.424329,48.841938],[2.436914,48.841057],[2.437937,48.844421],[2.440555,48.844799],[2.441227,48.845894],[2.445469,48.845798],[2.446801,48.844906],[2.462227,48.84254],[2.464835,48.841362],[2.469753,48.835998],[2.468943,48.83395],[2.465869,48.831981],[2.465065,48.830665],[2.464698,48.827869],[2.466023,48.826969],[2.462577,48.819305],[2.461245,48.818344],[2.457568,48.816993],[2.453294,48.817177],[2.449175,48.81792],[2.437463,48.81818],[2.436858,48.819381],[2.434143,48.819561],[2.432854,48.821354],[2.429493,48.823543],[2.426406,48.824116],[2.41999,48.824077],[2.409621,48.825313],[2.402545,48.829513],[2.39359,48.827286],[2.380331,48.821556],[2.364135,48.816383],[2.356349,48.81596],[2.352489,48.818382],[2.347024,48.816116],[2.343911,48.815754],[2.342036,48.816261],[2.331904,48.817013],[2.332166,48.818313],[2.292105,48.827179],[2.279155,48.832409],[2.27321,48.828228],[2.267956,48.8279],[2.267295,48.831318],[2.269516,48.832782],[2.269523,48.833343],[2.267025,48.834602],[2.262791,48.833923],[2.255329,48.834785],[2.254684,48.835354],[2.251668,48.839142],[2.25124,48.842701],[2.252455,48.845443],[2.250311,48.845634],[2.242275,48.847744],[2.239503,48.849922],[2.224219,48.853515],[2.224429,48.856174],[2.228435,48.865463],[2.231736,48.869068],[2.241174,48.872478],[2.245703,48.876461],[2.254674,48.874115],[2.255528,48.8745],[2.258214,48.879875],[2.258949,48.880325],[2.276864,48.878048],[2.279949,48.878574],[2.280827,48.882503],[2.28446,48.885639],[2.291045,48.889244],[2.295166,48.889927],[2.308043,48.896141],[2.318296,48.899563],[2.319887,48.900459],[2.320773,48.900795],[2.32998,48.901165],[2.385327,48.901973],[2.389441,48.901153],[2.39515,48.898124],[2.397673,48.894268],[2.3989,48.885872],[2.400758,48.883339],[2.403946,48.881469],[2.408958,48.88023],[2.412423,48.875889],[2.414015,48.869682],[2.413727,48.862041],[2.416345,48.849239]]],"type":"Polygon"}}
]}