{
"type": "FeatureCollection",
"crs": { "type": "name", "properties": { "name": "urn:ogc:def:crs:OGC:1.3:CRS84" } },
"features": [
{ "type": "Feature", "properties": { "author": "Victor Hugo", "movement": "Romanticism", "location": "Hugo’s House (Place des Vosges)", "description": "Hugo's residence, now a museum", "lat": 48.8555, "lon": 2.3652, "story": "Here, Hugo wrote many of his works and held literary gatherings." }, "geometry": { "type": "Point", "coordinates": [ 2.3652, 48.8555 ] } },
{ "type": "Feature", "properties": { "author": "Victor Hugo", "movement": "Romanticism", "location": "Notre-Dame Cathedral", "description": "Setting of \"Notre-Dame de Paris\"", "lat": 48.8529, "lon": 2.3508, "story": "Inspired his famous novel, \"Notre-Dame de Paris\"." }, "geometry": { "type": "Point", "coordinates": [ 2.3508, 48.8529 ] } },
{ "type": "Feature", "properties": { "author": "Victor Hugo", "movement": "Romanticism", "location": "Panthéon", "description": "Hugo's final resting place", "lat": 48.8462, "lon": 2.3448, "story": "His grand funeral procession ended here, attended by thousands." }, "geometry": { "type": "Point", "coordinates": [ 2.3448, 48.8462 ] } },
{ "type": "Feature", "properties": { "author": "Victor Hugo", "movement": "Romanticism", "location": "Avenue Victor Hugo", "description": "Street named in his honor", "lat": 48.872, "lon": 2.2876, "story": "A tribute to his legacy in Paris." }, "geometry": { "type": "Point", "coordinates": [ 2.2876, 48.872 ] } },
{ "type": "Feature", "properties": { "author": "Victor Hugo", "movement": "Romanticism", "location": "Café Procope", "description": "A historic literary café Hugo visited", "lat": 48.8534, "lon": 2.3393, "story": "Frequented by Hugo and other intellectuals of his era." }, "geometry": { "type": "Point", "coordinates": [ 2.3393, 48.8534 ] } },
{ "type": "Feature", "properties": { "author": "Marcel Proust", "movement": "Symbolism / Modernism", "location": "102 Boulevard Haussmann", "description": "Proust's residence, now a museum site", "lat": 48.875, "lon": 2.3143, "story": "Here, Proust wrote most of In Search of Lost Time." }, "geometry": { "type": "Point", "coordinates": [ 2.3143, 48.875 ] } },
{ "type": "Feature", "properties": { "author": "Marcel Proust", "movement": "Symbolism / Modernism", "location": "Parc Monceau", "description": "A nearby park Proust often visited", "lat": 48.879, "lon": 2.3092, "story": "Inspired scenes in his novel with reflections on memory." }, "geometry": { "type": "Point", "coordinates": [ 2.3092, 48.879 ] } },
{ "type": "Feature", "properties": { "author": "Marcel Proust", "movement": "Symbolism / Modernism", "location": "Ritz Paris", "description": "Proust’s favorite luxury hotel", "lat": 48.8686, "lon": 2.3285, "story": "He often dined here and found literary inspiration." }, "geometry": { "type": "Point", "coordinates": [ 2.3285, 48.8686 ] } },
{ "type": "Feature", "properties": { "author": "Marcel Proust", "movement": "Symbolism / Modernism", "location": "Père Lachaise Cemetery", "description": "Proust's final resting place", "lat": 48.8614, "lon": 2.3933, "story": "His tomb is frequently visited by admirers." }, "geometry": { "type": "Point", "coordinates": [ 2.3933, 48.8614 ] } },
{ "type": "Feature", "properties": { "author": "Marcel Proust", "movement": "Symbolism / Modernism", "location": "Café de la Paix", "description": "Famous meeting spot for artists", "lat": 48.8704, "lon": 2.3311, "story": "Proust mingled here with Parisian intellectuals." }, "geometry": { "type": "Point", "coordinates": [ 2.3311, 48.8704 ] } },
{ "type": "Feature", "properties": { "author": "Jean-Paul Sartre and Simone de Beauvoir", "movement": "Existentialism", "location": "Café de Flore", "description": "Their regular meeting place", "lat": 48.8543, "lon": 2.333, "story": "Sartre and Beauvoir discussed existentialism here." }, "geometry": { "type": "Point", "coordinates": [ 2.333, 48.8543 ] } },
{ "type": "Feature", "properties": { "author": "Jean-Paul Sartre and Simone de Beauvoir", "movement": "Existentialism", "location": "Les Deux Magots", "description": "Another favorite café", "lat": 48.8539, "lon": 2.3333, "story": "They met with other writers like Camus and Malraux." }, "geometry": { "type": "Point", "coordinates": [ 2.3333, 48.8539 ] } },
{ "type": "Feature", "properties": { "author": "Jean-Paul Sartre and Simone de Beauvoir", "movement": "Existentialism", "location": "Sorbonne University", "description": "Where they studied and taught", "lat": 48.8488, "lon": 2.3432, "story": "Both studied philosophy here and later became public figures." }, "geometry": { "type": "Point", "coordinates": [ 2.3432, 48.8488 ] } },
{ "type": "Feature", "properties": { "author": "Jean-Paul Sartre and Simone de Beauvoir", "movement": "Existentialism", "location": "Rue Bonaparte", "description": "Their residence", "lat": 48.8556, "lon": 2.3342, "story": "Lived together while working on their philosophical texts." }, "geometry": { "type": "Point", "coordinates": [ 2.3342, 48.8556 ] } },
{ "type": "Feature", "properties": { "author": "Jean-Paul Sartre and Simone de Beauvoir", "movement": "Existentialism", "location": "Panthéon", "description": "Memorial plaque honoring them", "lat": 48.8462, "lon": 2.3448, "story": "Their remains were eventually transferred here in 1986." }, "geometry": { "type": "Point", "coordinates": [ 2.3448, 48.8462 ] } },
{ "type": "Feature", "properties": { "author": "Jean-Paul Sartre and Simone de Beauvoir", "movement": "Existentialism", "location": "Rue de Seine", "description": "Frequented for bookshops and cafes", "lat": 48.8553, "lon": 2.3357, "story": "Walked along this street for inspiration and meetings." }, "geometry": { "type": "Point", "coordinates": [ 2.3357, 48.8553 ] } },
{ "type": "Feature", "properties": { "author": "Jean-Paul Sartre and Simone de Beauvoir", "movement": "Existentialism", "location": "Théatre de l’Odéon", "description": "Supported avant-garde theater", "lat": 48.8507, "lon": 2.3393, "story": "Sartre's plays were performed here." }, "geometry": { "type": "Point", "coordinates": [ 2.3393, 48.8507 ] } },
{ "type": "Feature", "properties": { "author": "émile Zola", "movement": "Naturalism", "location": "Zola’s House", "description": "Residence in Paris", "lat": 48.8828, "lon": 2.319, "story": "Zola wrote many of his works here, including his Rougon-Macquart series." }, "geometry": { "type": "Point", "coordinates": [ 2.319, 48.8828 ] } },
{ "type": "Feature", "properties": { "author": "émile Zola", "movement": "Naturalism", "location": "Le Figaro", "description": "Newspaper where he published \"J'accuse\"", "lat": 48.8726, "lon": 2.3323, "story": "The site of Zola’s famous open letter defending Dreyfus." }, "geometry": { "type": "Point", "coordinates": [ 2.3323, 48.8726 ] } },
{ "type": "Feature", "properties": { "author": "émile Zola", "movement": "Naturalism", "location": "Panthéon", "description": "Final resting place", "lat": 48.8462, "lon": 2.3448, "story": "His remains were transferred here as a tribute to his courage." }, "geometry": { "type": "Point", "coordinates": [ 2.3448, 48.8462 ] } },
{ "type": "Feature", "properties": { "author": "émile Zola", "movement": "Naturalism", "location": "Palais de Justice", "description": "Dreyfus trial location", "lat": 48.8555, "lon": 2.3469, "story": "Zola became a vocal advocate for Dreyfus's innocence here." }, "geometry": { "type": "Point", "coordinates": [ 2.3469, 48.8555 ] } },
{ "type": "Feature", "properties": { "author": "émile Zola", "movement": "Naturalism", "location": "Café de Flore", "description": "Literary café he visited", "lat": 48.8543, "lon": 2.333, "story": "Met with other writers and intellectuals." }, "geometry": { "type": "Point", "coordinates": [ 2.333, 48.8543 ] } },
{ "type": "Feature", "properties": { "author": "George Sand", "movement": "Romanticism / Realism", "location": "Sand’s House", "description": "Residence in Paris", "lat": 48.8815, "lon": 2.3342, "story": "Hosted literary salons with writers like Balzac and Flaubert." }, "geometry": { "type": "Point", "coordinates": [ 2.3342, 48.8815 ] } },
{ "type": "Feature", "properties": { "author": "George Sand", "movement": "Romanticism / Realism", "location": "Café de la Paix", "description": "A meeting place for writers", "lat": 48.8705, "lon": 2.3312, "story": "Met with contemporaries to discuss literature and politics." }, "geometry": { "type": "Point", "coordinates": [ 2.3312, 48.8705 ] } },
{ "type": "Feature", "properties": { "author": "George Sand", "movement": "Romanticism / Realism", "location": "Théatre de l’Odéon", "description": "Supported literary performances", "lat": 48.8507, "lon": 2.3393, "story": "Sand supported emerging playwrights and feminist ideas here." }, "geometry": { "type": "Point", "coordinates": [ 2.3393, 48.8507 ] } },
{ "type": "Feature", "properties": { "author": "George Sand", "movement": "Romanticism / Realism", "location": "Panthéon", "description": "Location of her literary recognition", "lat": 48.8462, "lon": 2.3448, "story": "Honored here for her contribution to French literature." }, "geometry": { "type": "Point", "coordinates": [ 2.3448, 48.8462 ] } },
{ "type": "Feature", "properties": { "author": "George Sand", "movement": "Romanticism / Realism", "location": "Rue de Rivoli", "description": "Street of literary gatherings", "lat": 48.8566, "lon": 2.3522, "story": "Walked this famous street, a symbol of Parisian life." }, "geometry": { "type": "Point", "coordinates": [ 2.3522, 48.8566 ] } },
{ "type": "Feature", "properties": { "author": "Honoré de Balzac", "movement": "Realism", "location": "Maison de Balzac (Passy)", "description": "His residence, now a museum", "lat": 48.8564, "lon": 2.2765, "story": "Here, Balzac wrote many novels, including \"Eugénie Grandet\"." }, "geometry": { "type": "Point", "coordinates": [ 2.2765, 48.8564 ] } },
{ "type": "Feature", "properties": { "author": "Honoré de Balzac", "movement": "Realism", "location": "Rue Cassini", "description": "Another residence", "lat": 48.8386, "lon": 2.34, "story": "Lived here while writing his early works." }, "geometry": { "type": "Point", "coordinates": [ 2.34, 48.8386 ] } },
{ "type": "Feature", "properties": { "author": "Honoré de Balzac", "movement": "Realism", "location": "Rue Visconti", "description": "His printing workshop", "lat": 48.8571, "lon": 2.335, "story": "Failed as a printer here, leading to debt but creative growth." }, "geometry": { "type": "Point", "coordinates": [ 2.335, 48.8571 ] } },
{ "type": "Feature", "properties": { "author": "Honoré de Balzac", "movement": "Realism", "location": "Comédie-Fran?aise", "description": "Premiered his play \"Les Ressources de Quinola\"", "lat": 48.8604, "lon": 2.3384, "story": "His connection to the world of theater." }, "geometry": { "type": "Point", "coordinates": [ 2.3384, 48.8604 ] } },
{ "type": "Feature", "properties": { "author": "Honoré de Balzac", "movement": "Realism", "location": "Panthéon", "description": "Honored as a literary giant", "lat": 48.8462, "lon": 2.3448, "story": "Although not buried here, he is remembered as a French icon." }, "geometry": { "type": "Point", "coordinates": [ 2.3448, 48.8462 ] } },
{ "type": "Feature", "properties": { "author": "Honoré de Balzac", "movement": "Realism", "location": "Père Lachaise Cemetery", "description": "His final resting place", "lat": 48.8614, "lon": 2.3933, "story": "Buried here, his tomb is a place of homage for readers." }, "geometry": { "type": "Point", "coordinates": [ 2.3933, 48.8614 ] } },
{ "type": "Feature", "properties": { "author": "Honoré de Balzac", "movement": "Realism", "location": "Rue de Tournon", "description": "Frequented by Balzac for inspiration", "lat": 48.8513, "lon": 2.3373, "story": "Walked this area to observe Parisian life for his novels." }, "geometry": { "type": "Point", "coordinates": [ 2.3373, 48.8513 ] } },
{ "type": "Feature", "properties": { "author": "Charles Baudelaire", "movement": "Symbolism / Modernism", "location": "Baudelaire’s House (Rue de Seine)", "description": "His birthplace", "lat": 48.8532, "lon": 2.325, "story": "Baudelaire was born here in 1821." }, "geometry": { "type": "Point", "coordinates": [ 2.325, 48.8532 ] } },
{ "type": "Feature", "properties": { "author": "Charles Baudelaire", "movement": "Symbolism / Modernism", "location": "H?tel Pimodan", "description": "His residence, now H?tel de Lauzun", "lat": 48.8521, "lon": 2.3582, "story": "Here, he wrote some of his most famous poems." }, "geometry": { "type": "Point", "coordinates": [ 2.3582, 48.8521 ] } },
{ "type": "Feature", "properties": { "author": "Charles Baudelaire", "movement": "Symbolism / Modernism", "location": "Sainte-Anne Asylum", "description": "Where he was treated for illness", "lat": 48.8282, "lon": 2.3368, "story": "Suffered from health issues towards the end of his life." }, "geometry": { "type": "Point", "coordinates": [ 2.3368, 48.8282 ] } },
{ "type": "Feature", "properties": { "author": "Charles Baudelaire", "movement": "Symbolism / Modernism", "location": "Panthéon", "description": "Memorial plaque in his honor", "lat": 48.8462, "lon": 2.3448, "story": "Honored as a transformative poet." }, "geometry": { "type": "Point", "coordinates": [ 2.3448, 48.8462 ] } },
{ "type": "Feature", "properties": { "author": "Charles Baudelaire", "movement": "Symbolism / Modernism", "location": "Le Flore Café", "description": "Met with other poets", "lat": 48.8543, "lon": 2.333, "story": "Discussed poetry and art with his peers." }, "geometry": { "type": "Point", "coordinates": [ 2.333, 48.8543 ] } },
{ "type": "Feature", "properties": { "author": "Guillaume Apollinaire", "movement": "Surrealism / Cubism precursor", "location": "Café de Flore", "description": "Met with Picasso and other artists", "lat": 48.8543, "lon": 2.333, "story": "Center of avant-garde discussions." }, "geometry": { "type": "Point", "coordinates": [ 2.333, 48.8543 ] } },
{ "type": "Feature", "properties": { "author": "Guillaume Apollinaire", "movement": "Surrealism / Cubism precursor", "location": "Rue Saint-Jacques", "description": "His residence", "lat": 48.8467, "lon": 2.346, "story": "Lived here while writing his most famous poems." }, "geometry": { "type": "Point", "coordinates": [ 2.346, 48.8467 ] } },
{ "type": "Feature", "properties": { "author": "Guillaume Apollinaire", "movement": "Surrealism / Cubism precursor", "location": "Louvre Museum", "description": "Source of inspiration for his poetry", "lat": 48.8606, "lon": 2.3376, "story": "His poetry often referenced classical art." }, "geometry": { "type": "Point", "coordinates": [ 2.3376, 48.8606 ] } },
{ "type": "Feature", "properties": { "author": "Guillaume Apollinaire", "movement": "Surrealism / Cubism precursor", "location": "Panthéon", "description": "Honored after his death", "lat": 48.8462, "lon": 2.3448, "story": "Memorial plaque in his name." }, "geometry": { "type": "Point", "coordinates": [ 2.3448, 48.8462 ] } },
{ "type": "Feature", "properties": { "author": "Guillaume Apollinaire", "movement": "Surrealism / Cubism precursor", "location": "Montparnasse Cemetery", "description": "Final resting place", "lat": 48.8383, "lon": 2.3253, "story": "Buried here alongside other artists." }, "geometry": { "type": "Point", "coordinates": [ 2.3253, 48.8383 ] } },
{ "type": "Feature", "properties": { "author": "Albert Camus", "movement": "Absurdism / Existentialism", "location": "Gallimard Publishing", "description": "Publisher of his major works", "lat": 48.8493, "lon": 2.3303, "story": "Published \"The Stranger\" and \"The Plague\"." }, "geometry": { "type": "Point", "coordinates": [ 2.3303, 48.8493 ] } },
{ "type": "Feature", "properties": { "author": "Albert Camus", "movement": "Absurdism / Existentialism", "location": "Saint-Germain-des-Prés", "description": "Literary district he frequented", "lat": 48.8543, "lon": 2.333, "story": "Met Sartre and other intellectuals here." }, "geometry": { "type": "Point", "coordinates": [ 2.333, 48.8543 ] } },
{ "type": "Feature", "properties": { "author": "Albert Camus", "movement": "Absurdism / Existentialism", "location": "Théatre de l’Odéon", "description": "His plays were performed here", "lat": 48.8507, "lon": 2.3393, "story": "Supported emerging theater movements." }, "geometry": { "type": "Point", "coordinates": [ 2.3393, 48.8507 ] } },
{ "type": "Feature", "properties": { "author": "Albert Camus", "movement": "Absurdism / Existentialism", "location": "Panthéon", "description": "Honored for his contributions", "lat": 48.8462, "lon": 2.3448, "story": "Recognized posthumously for his impact on literature." }, "geometry": { "type": "Point", "coordinates": [ 2.3448, 48.8462 ] } },
{ "type": "Feature", "properties": { "author": "Albert Camus", "movement": "Absurdism / Existentialism", "location": "Rue de la Huchette", "description": "Lived here during early years", "lat": 48.8526, "lon": 2.3463, "story": "A small apartment where he wrote his early essays." }, "geometry": { "type": "Point", "coordinates": [ 2.3463, 48.8526 ] } },
{ "type": "Feature", "properties": { "author": "Paul Verlaine and Arthur Rimbaud", "movement": "Symbolism / Surrealism precursor", "location": "H?tel des étrangers", "description": "Their first meeting place", "lat": 48.8528, "lon": 2.3445, "story": "Verlaine and Rimbaud first met here, beginning a stormy affair." }, "geometry": { "type": "Point", "coordinates": [ 2.3445, 48.8528 ] } },
{ "type": "Feature", "properties": { "author": "Paul Verlaine and Arthur Rimbaud", "movement": "Symbolism / Surrealism precursor", "location": "Café Procope", "description": "Frequented for literary discussions", "lat": 48.8534, "lon": 2.3393, "story": "They met other poets and discussed Symbolism." }, "geometry": { "type": "Point", "coordinates": [ 2.3393, 48.8534 ] } },
{ "type": "Feature", "properties": { "author": "Paul Verlaine and Arthur Rimbaud", "movement": "Symbolism / Surrealism precursor", "location": "Rue Campagne-Première", "description": "Verlaine’s residence", "lat": 48.8398, "lon": 2.3302, "story": "Verlaine lived here during his later years." }, "geometry": { "type": "Point", "coordinates": [ 2.3302, 48.8398 ] } },
{ "type": "Feature", "properties": { "author": "Paul Verlaine and Arthur Rimbaud", "movement": "Symbolism / Surrealism precursor", "location": "Café de la Nouvelle Athènes", "description": "Met with other avant-garde poets", "lat": 48.8826, "lon": 2.3336, "story": "Known for gatherings of artists and poets." }, "geometry": { "type": "Point", "coordinates": [ 2.3336, 48.8826 ] } },
{ "type": "Feature", "properties": { "author": "Paul Verlaine and Arthur Rimbaud", "movement": "Symbolism / Surrealism precursor", "location": "Panthéon", "description": "Memorial plaque honoring them", "lat": 48.8462, "lon": 2.3448, "story": "Commemorated as influential French poets." }, "geometry": { "type": "Point", "coordinates": [ 2.3448, 48.8462 ] } },
{ "type": "Feature", "properties": { "author": "Paul Verlaine and Arthur Rimbaud", "movement": "Symbolism / Surrealism precursor", "location": "Rue des Martyrs", "description": "Walked here for inspiration", "lat": 48.879, "lon": 2.3425, "story": "A famous literary and artistic district they frequented." }, "geometry": { "type": "Point", "coordinates": [ 2.3425, 48.879 ] } },
{ "type": "Feature", "properties": { "author": "Paul Verlaine and Arthur Rimbaud", "movement": "Symbolism / Surrealism precursor", "location": "Montmartre Cemetery", "description": "Verlaine’s final resting place", "lat": 48.8891, "lon": 2.3286, "story": "Buried here among other Parisian artists." }, "geometry": { "type": "Point", "coordinates": [ 2.3286, 48.8891 ] } }
]
}
